BEIDOU-3 G1             
1 43683U 18085A   26091.86294493 -.00000284  00000+0  00000+0 0  9992
2 43683   2.8820  99.4564 0002058  12.9832 168.3736  1.00268589 27296
BEIDOU-3 M17            
1 43706U 18093A   26095.90522559  .00000009  00000+0  00000+0 0  9997
2 43706  54.1684 184.7488 0008162 293.0715 123.1664  1.86228561 50191
BEIDOU-3 M18            
1 43707U 18093B   26095.14700345  .00000013  00000+0  00000+0 0  9990
2 43707  54.1693 184.7664 0006506 331.1233  28.8861  1.86226672 50176
BEIDOU-3 IGSO-1         
1 44204U 19023A   26090.65189120 -.00000226  00000+0  00000+0 0  9997
2 44204  58.5926  38.4466 0025189 236.5952 266.8923  1.00262964  6438
BEIDOU-2 G8             
1 44231U 19027A   26095.84490052 -.00000244  00000+0  00000+0 0  9996
2 44231   1.4752  74.3195 0011507 276.9215 291.5689  1.00275423 25359
BEIDOU-3 IGSO-2         
1 44337U 19035A   26086.82285878 -.00000161  00000+0  00000+0 0  9996
2 44337  55.2326 159.5780 0039045 213.6954 226.2541  1.00291912 24858
BEIDOU-3 M24            
1 44542U 19061A   26094.67962578  .00000015  00000+0  00000+0 0  9991
2 44542  54.3962 185.2068 0008113  12.5163 347.5468  1.86229007 44427
BEIDOU-3 M23            
1 44543U 19061B   26092.15889837  .00000005  00000+0  00000+0 0  9998
2 44543  54.3946 185.2604 0004867 359.4431  22.6796  1.86227494 44387
BEIDOU-3 IGSO-3         
1 44709U 19073A   26094.91715419 -.00000178  00000+0  00000+0 0  9997
2 44709  54.9277 281.6864 0041424 188.4946 171.3751  1.00259377 23723
BEIDOU-3 M22            
1 44793U 19078A   26094.51853862 -.00000061  00000+0  00000+0 0  9997
2 44793  54.0029 302.4189 0007558  42.6264 317.4505  1.86227241 43279
BEIDOU-3 M21            
1 44794U 19078B   26093.58474245 -.00000063  00000+0  00000+0 0  9990
2 44794  53.9768 302.4147 0005354  38.8071 321.2518  1.86227660 43268
BEIDOU-3 M19            
1 44864U 19090A   26095.70552223 -.00000034  00000+0  00000+0 0  9999
2 44864  56.4979  65.1844 0020280 293.9957 244.6668  1.86231691 42887
BEIDOU-3 M20            
1 44865U 19090B   26095.57248689 -.00000035  00000+0  00000+0 0  9994
2 44865  56.4994  65.2230 0017785 305.7486 233.3254  1.86231595 42867
BEIDOU-3 G2             
1 45344U 20017A   26095.90441778 -.00000138  00000+0  00000+0 0  9993
2 45344   2.7196  46.1612 0002873 338.5909 215.0832  1.00272127 22539
BEIDOU-3 G3             
1 45807U 20040A   26095.76688249 -.00000351  00000+0  00000+0 0  9990
2 45807   2.2698  67.2276 0004619 329.1984 184.2648  1.00269472 21343
BEIDOU-3 G4             
1 56564U 23066A   26095.48750690 -.00000280  00000+0  00000+0 0  9993
2 56564   0.5928 315.9768 0002968 157.9058  35.4666  1.00270725 10668
BEIDOU-3 M28            
1 58654U 23207A   26095.27291094 -.00000040  00000+0  00000+0 0  9991
2 58654  55.6905  64.7614 0004908 314.4496  45.4833  1.86229856 15482
