[{"OBJECT_NAME":"BEIDOU-3 G1 (C59)","OBJECT_ID":"2018-085A","EPOCH":"2026-04-01T20:42:38.441952","MEAN_MOTION":1.00268589,"ECCENTRICITY":0.00020589,"INCLINATION":2.882,"RA_OF_ASC_NODE":99.4564,"ARG_OF_PERICENTER":12.9832,"MEAN_ANOMALY":168.3736,"EPHEMERIS_TYPE":0,"CLASSIFICATION_TYPE":"U","NORAD_CAT_ID":43683,"ELEMENT_SET_NO":999,"REV_AT_EPOCH":2729,"BSTAR":0,"MEAN_MOTION_DOT":-2.84e-6,"MEAN_MOTION_DDOT":0},{"OBJECT_NAME":"BEIDOU-3 M17 (C36)","OBJECT_ID":"2018-093A","EPOCH":"2026-04-05T21:43:31.490976","MEAN_MOTION":1.86228561,"ECCENTRICITY":0.0008162,"INCLINATION":54.1684,"RA_OF_ASC_NODE":184.7488,"ARG_OF_PERICENTER":293.0715,"MEAN_ANOMALY":123.1664,"EPHEMERIS_TYPE":0,"CLASSIFICATION_TYPE":"U","NORAD_CAT_ID":43706,"ELEMENT_SET_NO":999,"REV_AT_EPOCH":5019,"BSTAR":0,"MEAN_MOTION_DOT":9.0e-8,"MEAN_MOTION_DDOT":0},{"OBJECT_NAME":"BEIDOU-3 M18 (C37)","OBJECT_ID":"2018-093B","EPOCH":"2026-04-05T03:31:41.098080","MEAN_MOTION":1.86226672,"ECCENTRICITY":0.0006506,"INCLINATION":54.1693,"RA_OF_ASC_NODE":184.7664,"ARG_OF_PERICENTER":331.1233,"MEAN_ANOMALY":28.8861,"EPHEMERIS_TYPE":0,"CLASSIFICATION_TYPE":"U","NORAD_CAT_ID":43707,"ELEMENT_SET_NO":999,"REV_AT_EPOCH":5017,"BSTAR":0,"MEAN_MOTION_DOT":1.3e-7,"MEAN_MOTION_DDOT":0},{"OBJECT_NAME":"BEIDOU-3 IGSO-1 (C38)","OBJECT_ID":"2019-023A","EPOCH":"2026-03-31T15:38:43.399680","MEAN_MOTION":1.00262964,"ECCENTRICITY":0.00251896,"INCLINATION":58.5926,"RA_OF_ASC_NODE":38.4466,"ARG_OF_PERICENTER":236.5952,"MEAN_ANOMALY":266.8923,"EPHEMERIS_TYPE":0,"CLASSIFICATION_TYPE":"U","NORAD_CAT_ID":44204,"ELEMENT_SET_NO":999,"REV_AT_EPOCH":643,"BSTAR":0,"MEAN_MOTION_DOT":-2.26e-6,"MEAN_MOTION_DDOT":0},{"OBJECT_NAME":"BEIDOU-2 G8 (C01)","OBJECT_ID":"2019-027A","EPOCH":"2026-04-05T20:16:39.404928","MEAN_MOTION":1.00275423,"ECCENTRICITY":0.0011507,"INCLINATION":1.4752,"RA_OF_ASC_NODE":74.3195,"ARG_OF_PERICENTER":276.9215,"MEAN_ANOMALY":291.5689,"EPHEMERIS_TYPE":0,"CLASSIFICATION_TYPE":"U","NORAD_CAT_ID":44231,"ELEMENT_SET_NO":999,"REV_AT_EPOCH":2535,"BSTAR":0,"MEAN_MOTION_DOT":-2.44e-6,"MEAN_MOTION_DDOT":0},{"OBJECT_NAME":"BEIDOU-3 IGSO-2 (C39)","OBJECT_ID":"2019-035A","EPOCH":"2026-03-27T19:44:54.998592","MEAN_MOTION":1.00291912,"ECCENTRICITY":0.00390451,"INCLINATION":55.2326,"RA_OF_ASC_NODE":159.578,"ARG_OF_PERICENTER":213.6954,"MEAN_ANOMALY":226.2541,"EPHEMERIS_TYPE":0,"CLASSIFICATION_TYPE":"U","NORAD_CAT_ID":44337,"ELEMENT_SET_NO":999,"REV_AT_EPOCH":2485,"BSTAR":0,"MEAN_MOTION_DOT":-1.61e-6,"MEAN_MOTION_DDOT":0},{"OBJECT_NAME":"BEIDOU-3 M24 (C46)","OBJECT_ID":"2019-061A","EPOCH":"2026-04-04T16:18:39.667392","MEAN_MOTION":1.86229007,"ECCENTRICITY":0.00081135,"INCLINATION":54.3962,"RA_OF_ASC_NODE":185.2068,"ARG_OF_PERICENTER":12.5163,"MEAN_ANOMALY":347.5468,"EPHEMERIS_TYPE":0,"CLASSIFICATION_TYPE":"U","NORAD_CAT_ID":44542,"ELEMENT_SET_NO":999,"REV_AT_EPOCH":4442,"BSTAR":0,"MEAN_MOTION_DOT":1.5e-7,"MEAN_MOTION_DDOT":0},{"OBJECT_NAME":"BEIDOU-3 M23 (C45)","OBJECT_ID":"2019-061B","EPOCH":"2026-04-02T03:48:48.819168","MEAN_MOTION":1.86227494,"ECCENTRICITY":0.00048672,"INCLINATION":54.3946,"RA_OF_ASC_NODE":185.2604,"ARG_OF_PERICENTER":359.4431,"MEAN_ANOMALY":22.6796,"EPHEMERIS_TYPE":0,"CLASSIFICATION_TYPE":"U","NORAD_CAT_ID":44543,"ELEMENT_SET_NO":999,"REV_AT_EPOCH":4438,"BSTAR":0,"MEAN_MOTION_DOT":5.0e-8,"MEAN_MOTION_DDOT":0},{"OBJECT_NAME":"BEIDOU-3 IGSO-3 (C40)","OBJECT_ID":"2019-073A","EPOCH":"2026-04-04T22:00:42.122016","MEAN_MOTION":1.00259377,"ECCENTRICITY":0.0041424,"INCLINATION":54.9277,"RA_OF_ASC_NODE":281.6864,"ARG_OF_PERICENTER":188.4946,"MEAN_ANOMALY":171.3751,"EPHEMERIS_TYPE":0,"CLASSIFICATION_TYPE":"U","NORAD_CAT_ID":44709,"ELEMENT_SET_NO":999,"REV_AT_EPOCH":2372,"BSTAR":0,"MEAN_MOTION_DOT":-1.78e-6,"MEAN_MOTION_DDOT":0},{"OBJECT_NAME":"BEIDOU-3 M22 (C44)","OBJECT_ID":"2019-078A","EPOCH":"2026-04-04T12:26:41.736768","MEAN_MOTION":1.86227241,"ECCENTRICITY":0.00075582,"INCLINATION":54.0029,"RA_OF_ASC_NODE":302.4189,"ARG_OF_PERICENTER":42.6264,"MEAN_ANOMALY":317.4505,"EPHEMERIS_TYPE":0,"CLASSIFICATION_TYPE":"U","NORAD_CAT_ID":44793,"ELEMENT_SET_NO":999,"REV_AT_EPOCH":4327,"BSTAR":0,"MEAN_MOTION_DOT":-6.1e-7,"MEAN_MOTION_DDOT":0},{"OBJECT_NAME":"BEIDOU-3 M21 (C43)","OBJECT_ID":"2019-078B","EPOCH":"2026-04-03T14:02:01.747680","MEAN_MOTION":1.8622766,"ECCENTRICITY":0.00053542,"INCLINATION":53.9768,"RA_OF_ASC_NODE":302.4147,"ARG_OF_PERICENTER":38.8071,"MEAN_ANOMALY":321.2518,"EPHEMERIS_TYPE":0,"CLASSIFICATION_TYPE":"U","NORAD_CAT_ID":44794,"ELEMENT_SET_NO":999,"REV_AT_EPOCH":4326,"BSTAR":0,"MEAN_MOTION_DOT":-6.3e-7,"MEAN_MOTION_DDOT":0},{"OBJECT_NAME":"BEIDOU-3 M19 (C41)","OBJECT_ID":"2019-090A","EPOCH":"2026-04-05T16:55:57.120672","MEAN_MOTION":1.86231691,"ECCENTRICITY":0.002028,"INCLINATION":56.4979,"RA_OF_ASC_NODE":65.1844,"ARG_OF_PERICENTER":293.9957,"MEAN_ANOMALY":244.6668,"EPHEMERIS_TYPE":0,"CLASSIFICATION_TYPE":"U","NORAD_CAT_ID":44864,"ELEMENT_SET_NO":999,"REV_AT_EPOCH":4288,"BSTAR":0,"MEAN_MOTION_DOT":-3.4e-7,"MEAN_MOTION_DDOT":0},{"OBJECT_NAME":"BEIDOU-3 M20 (C42)","OBJECT_ID":"2019-090B","EPOCH":"2026-04-05T13:44:22.867296","MEAN_MOTION":1.86231595,"ECCENTRICITY":0.0017785,"INCLINATION":56.4994,"RA_OF_ASC_NODE":65.223,"ARG_OF_PERICENTER":305.7486,"MEAN_ANOMALY":233.3254,"EPHEMERIS_TYPE":0,"CLASSIFICATION_TYPE":"U","NORAD_CAT_ID":44865,"ELEMENT_SET_NO":999,"REV_AT_EPOCH":4286,"BSTAR":0,"MEAN_MOTION_DOT":-3.5e-7,"MEAN_MOTION_DDOT":0},{"OBJECT_NAME":"BEIDOU-3 G2 (C60)","OBJECT_ID":"2020-017A","EPOCH":"2026-04-05T21:42:21.696192","MEAN_MOTION":1.00272127,"ECCENTRICITY":0.0002873,"INCLINATION":2.7196,"RA_OF_ASC_NODE":46.1612,"ARG_OF_PERICENTER":338.5909,"MEAN_ANOMALY":215.0832,"EPHEMERIS_TYPE":0,"CLASSIFICATION_TYPE":"U","NORAD_CAT_ID":45344,"ELEMENT_SET_NO":999,"REV_AT_EPOCH":2253,"BSTAR":0,"MEAN_MOTION_DOT":-1.38e-6,"MEAN_MOTION_DDOT":0},{"OBJECT_NAME":"BEIDOU-3 G3 (C61)","OBJECT_ID":"2020-040A","EPOCH":"2026-04-05T18:24:18.647136","MEAN_MOTION":1.00269472,"ECCENTRICITY":0.0004619,"INCLINATION":2.2698,"RA_OF_ASC_NODE":67.2276,"ARG_OF_PERICENTER":329.1984,"MEAN_ANOMALY":184.2648,"EPHEMERIS_TYPE":0,"CLASSIFICATION_TYPE":"U","NORAD_CAT_ID":45807,"ELEMENT_SET_NO":999,"REV_AT_EPOCH":2134,"BSTAR":0,"MEAN_MOTION_DOT":-3.51e-6,"MEAN_MOTION_DDOT":0},{"OBJECT_NAME":"BEIDOU-3 G4 (C62)","OBJECT_ID":"2023-066A","EPOCH":"2026-04-05T11:42:00.596160","MEAN_MOTION":1.00270725,"ECCENTRICITY":0.0002968,"INCLINATION":0.5928,"RA_OF_ASC_NODE":315.9768,"ARG_OF_PERICENTER":157.9058,"MEAN_ANOMALY":35.4666,"EPHEMERIS_TYPE":0,"CLASSIFICATION_TYPE":"U","NORAD_CAT_ID":56564,"ELEMENT_SET_NO":999,"REV_AT_EPOCH":1066,"BSTAR":0,"MEAN_MOTION_DOT":-2.8e-6,"MEAN_MOTION_DDOT":0},{"OBJECT_NAME":"BEIDOU-3 M28 (C50)","OBJECT_ID":"2023-207A","EPOCH":"2026-04-05T06:32:59.505216","MEAN_MOTION":1.86229856,"ECCENTRICITY":0.0004908,"INCLINATION":55.6905,"RA_OF_ASC_NODE":64.7614,"ARG_OF_PERICENTER":314.4496,"MEAN_ANOMALY":45.4833,"EPHEMERIS_TYPE":0,"CLASSIFICATION_TYPE":"U","NORAD_CAT_ID":58654,"ELEMENT_SET_NO":999,"REV_AT_EPOCH":1548,"BSTAR":0,"MEAN_MOTION_DOT":-4.0e-7,"MEAN_MOTION_DDOT":0}]
